{"type": "FeatureCollection", "features": [ {"type": "Feature", "properties": {"norad_id": 36551, "name": "COSMOS 2251 DEB", "group": "cosmos-2251-debris", "lat": -47.742094168721316, "lon": -32.40435755440928, "alt_km": 530.3437245649229, "timestamp": "2025-12-26T14:28:48.100505+00:00", "meta": {"OBJECT_NAME": "COSMOS 2251 DEB", "OBJECT_ID": "1993-036BDM", "EPOCH": "2025-12-23T08:25:21.362880", "MEAN_MOTION": 15.02881194, "ECCENTRICITY": 0.00509794, "INCLINATION": 73.8872, "RA_OF_ASC_NODE": 352.8451, "ARG_OF_PERICENTER": 300.1612, "MEAN_ANOMALY": 59.4529, "EPHEMERIS_TYPE": 0, "CLASSIFICATION_TYPE": "U", "NORAD_CAT_ID": 36551, "ELEMENT_SET_NO": 999, "REV_AT_EPOCH": 67091, "BSTAR": 0.0013038883, "MEAN_MOTION_DOT": 0.00017997, "MEAN_MOTION_DDOT": 0}, "tle": {"line1": "1 36551U 93036BDM 25357.35094170  .00017997  00000+0  13039-2 0  9992", "line2": "2 36551  73.8872 352.8451 0050979 300.1612  59.4529 15.02881194670914"}}, "geometry": {"type": "Point", "coordinates": [-32.40435755440928, -47.742094168721316]}}, {"type": "Feature", "properties": {"norad_id": 36557, "name": "COSMOS 2251 DEB", "group": "cosmos-2251-debris", "lat": 14.442404512114825, "lon": -85.33346522333925, "alt_km": 632.6165390393189, "timestamp": "2025-12-26T14:28:48.100515+00:00", "meta": {"OBJECT_NAME": "COSMOS 2251 DEB", "OBJECT_ID": "1993-036BDT", "EPOCH": "2025-12-25T13:22:56.127648", "MEAN_MOTION": 14.7886677, "ECCENTRICITY": 0.0022188, "INCLINATION": 73.9787, "RA_OF_ASC_NODE": 100.973, "ARG_OF_PERICENTER": 254.7091, "MEAN_ANOMALY": 105.1632, "EPHEMERIS_TYPE": 0, "CLASSIFICATION_TYPE": "U", "NORAD_CAT_ID": 36557, "ELEMENT_SET_NO": 999, "REV_AT_EPOCH": 34086, "BSTAR": 0.0038011, "MEAN_MOTION_DOT": 0.00028197, "MEAN_MOTION_DDOT": 0}, "tle": {"line1": "1 36557U 93036BDT 25359.55759407  .00028197  00000+0  38011-2 0  9994", "line2": "2 36557  73.9787 100.9730 0022188 254.7091 105.1632 14.78866770340861"}}, "geometry": {"type": "Point", "coordinates": [-85.33346522333925, 14.442404512114825]}}, {"type": "Feature", "properties": {"norad_id": 36558, "name": "COSMOS 2251 DEB", "group": "cosmos-2251-debris", "lat": 27.44528499697895, "lon": 136.84025748497376, "alt_km": 715.1950273037055, "timestamp": "2025-12-26T14:28:48.100525+00:00", "meta": {"OBJECT_NAME": "COSMOS 2251 DEB", "OBJECT_ID": "1993-036BDU", "EPOCH": "2025-12-26T01:09:05.124672", "MEAN_MOTION": 14.55457241, "ECCENTRICITY": 0.00125611, "INCLINATION": 74.043, "RA_OF_ASC_NODE": 129.3457, "ARG_OF_PERICENTER": 218.5387, "MEAN_ANOMALY": 141.4881, "EPHEMERIS_TYPE": 0, "CLASSIFICATION_TYPE": "U", "NORAD_CAT_ID": 36558, "ELEMENT_SET_NO": 999, "REV_AT_EPOCH": 85462, "BSTAR": 0.00097354493, "MEAN_MOTION_DOT": 4.212e-05, "MEAN_MOTION_DDOT": 0}, "tle": {"line1": "1 36558U 93036BDU 25360.04797598  .00004212  00000+0  97354-3 0  9992", "line2": "2 36558  74.0430 129.3457 0012561 218.5387 141.4881 14.55457241854627"}}, "geometry": {"type": "Point", "coordinates": [136.84025748497376, 27.44528499697895]}}, {"type": "Feature", "properties": {"norad_id": 36559, "name": "COSMOS 2251 DEB", "group": "cosmos-2251-debris", "lat": 67.41349260425197, "lon": 122.97567328759705, "alt_km": 902.7187946881677, "timestamp": "2025-12-26T14:28:48.100536+00:00", "meta": {"OBJECT_NAME": "COSMOS 2251 DEB", "OBJECT_ID": "1993-036BDV", "EPOCH": "2025-12-25T22:30:17.877024", "MEAN_MOTION": 13.95341265, "ECCENTRICITY": 0.0262607, "INCLINATION": 74.131, "RA_OF_ASC_NODE": 347.2543, "ARG_OF_PERICENTER": 16.1375, "MEAN_ANOMALY": 344.792, "EPHEMERIS_TYPE": 0, "CLASSIFICATION_TYPE": "U", "NORAD_CAT_ID": 36559, "ELEMENT_SET_NO": 999, "REV_AT_EPOCH": 81278, "BSTAR": 0.0044342, "MEAN_MOTION_DOT": 7.996e-05, "MEAN_MOTION_DDOT": 0}, "tle": {"line1": "1 36559U 93036BDV 25359.93770691  .00007996  00000+0  44342-2 0  9994", "line2": "2 36559  74.1310 347.2543 0262607  16.1375 344.7920 13.95341265812784"}}, "geometry": {"type": "Point", "coordinates": [122.97567328759705, 67.41349260425197]}}, {"type": "Feature", "properties": {"norad_id": 36614, "name": "COSMOS 2251 DEB", "group": "cosmos-2251-debris", "lat": -62.95856647372831, "lon": 113.94759322630735, "alt_km": 695.5668822890902, "timestamp": "2025-12-26T14:28:48.100546+00:00", "meta": {"OBJECT_NAME": "COSMOS 2251 DEB", "OBJECT_ID": "1993-036BEC", "EPOCH": "2025-12-25T19:03:45.124128", "MEAN_MOTION": 14.60436705, "ECCENTRICITY": 0.00155454, "INCLINATION": 74.0219, "RA_OF_ASC_NODE": 149.6407, "ARG_OF_PERICENTER": 219.5991, "MEAN_ANOMALY": 140.404, "EPHEMERIS_TYPE": 0, "CLASSIFICATION_TYPE": "U", "NORAD_CAT_ID": 36614, "ELEMENT_SET_NO": 999, "REV_AT_EPOCH": 65803, "BSTAR": 0.0017518768, "MEAN_MOTION_DOT": 8.483e-05, "MEAN_MOTION_DDOT": 0}, "tle": {"line1": "1 36614U 93036BEC 25359.79427227  .00008483  00000+0  17519-2 0  9992", "line2": "2 36614  74.0219 149.6407 0015545 219.5991 140.4040 14.60436705658033"}}, "geometry": {"type": "Point", "coordinates": [113.94759322630735, -62.95856647372831]}}, {"type": "Feature", "properties": {"norad_id": 36622, "name": "COSMOS 2251 DEB", "group": "cosmos-2251-debris", "lat": 64.45083205109226, "lon": 155.1389411051281, "alt_km": 682.6491438464245, "timestamp": "2025-12-26T14:28:48.100556+00:00", "meta": {"OBJECT_NAME": "COSMOS 2251 DEB", "OBJECT_ID": "1993-036BEL", "EPOCH": "2025-12-24T01:59:12.142752", "MEAN_MOTION": 14.76299213, "ECCENTRICITY": 0.00689018, "INCLINATION": 74.0149, "RA_OF_ASC_NODE": 123.2338, "ARG_OF_PERICENTER": 256.4441, "MEAN_ANOMALY": 102.9052, "EPHEMERIS_TYPE": 0, "CLASSIFICATION_TYPE": "U", "NORAD_CAT_ID": 36622, "ELEMENT_SET_NO": 999, "REV_AT_EPOCH": 66917, "BSTAR": 0.00077654532, "MEAN_MOTION_DOT": 5.567e-05, "MEAN_MOTION_DDOT": 0}, "tle": {"line1": "1 36622U 93036BEL 25358.08277943  .00005567  00000+0  77655-3 0  9998", "line2": "2 36622  74.0149 123.2338 0068901 256.4441 102.9052 14.76299213669170"}}, "geometry": {"type": "Point", "coordinates": [155.1389411051281, 64.45083205109226]}}, {"type": "Feature", "properties": {"norad_id": 36632, "name": "COSMOS 2251 DEB", "group": "cosmos-2251-debris", "lat": 23.000392684509347, "lon": -86.437017198307, "alt_km": 724.2912822757689, "timestamp": "2025-12-26T14:28:48.100566+00:00", "meta": {"OBJECT_NAME": "COSMOS 2251 DEB", "OBJECT_ID": "1993-036BEW", "EPOCH": "2025-12-23T01:31:35.391648", "MEAN_MOTION": 14.43225962, "ECCENTRICITY": 0.00327185, "INCLINATION": 74.0013, "RA_OF_ASC_NODE": 273.1539, "ARG_OF_PERICENTER": 18.5865, "MEAN_ANOMALY": 341.6478, "EPHEMERIS_TYPE": 0, "CLASSIFICATION_TYPE": "U", "NORAD_CAT_ID": 36632, "ELEMENT_SET_NO": 999, "REV_AT_EPOCH": 65364, "BSTAR": 0.0008144408, "MEAN_MOTION_DOT": 2.732e-05, "MEAN_MOTION_DDOT": 0}, "tle": {"line1": "1 36632U 93036BEW 25357.06360407  .00002732  00000+0  81444-3 0  9996", "line2": "2 36632  74.0013 273.1539 0032718  18.5865 341.6478 14.43225962653646"}}, "geometry": {"type": "Point", "coordinates": [-86.437017198307, 23.000392684509347]}}, {"type": "Feature", "properties": {"norad_id": 37084, "name": "COSMOS 2251 DEB", "group": "cosmos-2251-debris", "lat": 30.141018251340505, "lon": 142.78011196729412, "alt_km": 628.4332457724895, "timestamp": "2025-12-26T14:28:48.100576+00:00", "meta": {"OBJECT_NAME": "COSMOS 2251 DEB", "OBJECT_ID": "1993-036BFE", "EPOCH": "2025-12-24T15:57:16.760448", "MEAN_MOTION": 15.01180609, "ECCENTRICITY": 0.00968203, "INCLINATION": 74.0273, "RA_OF_ASC_NODE": 137.155, "ARG_OF_PERICENTER": 214.9103, "MEAN_ANOMALY": 144.5712, "EPHEMERIS_TYPE": 0, "CLASSIFICATION_TYPE": "U", "NORAD_CAT_ID": 37084, "ELEMENT_SET_NO": 999, "REV_AT_EPOCH": 66446, "BSTAR": 0.00075136281, "MEAN_MOTION_DOT": 0.00010628, "MEAN_MOTION_DDOT": 0}, "tle": {"line1": "1 37084U 93036BFE 25358.66477732  .00010628  00000+0  75136-3 0  9999", "line2": "2 37084  74.0273 137.1550 0096820 214.9103 144.5712 15.01180609664465"}}, "geometry": {"type": "Point", "coordinates": [142.78011196729412, 30.141018251340505]}}, {"type": "Feature", "properties": {"norad_id": 37085, "name": "COSMOS 2251 DEB", "group": "cosmos-2251-debris", "lat": 11.703614051758334, "lon": -170.7803424159517, "alt_km": 419.5930480163688, "timestamp": "2025-12-26T14:28:48.100586+00:00", "meta": {"OBJECT_NAME": "COSMOS 2251 DEB", "OBJECT_ID": "1993-036BFF", "EPOCH": "2025-12-13T09:00:31.802112", "MEAN_MOTION": 15.41681601, "ECCENTRICITY": 0.00213151, "INCLINATION": 73.9479, "RA_OF_ASC_NODE": 214.6598, "ARG_OF_PERICENTER": 52.8263, "MEAN_ANOMALY": 307.4887, "EPHEMERIS_TYPE": 0, "CLASSIFICATION_TYPE": "U", "NORAD_CAT_ID": 37085, "ELEMENT_SET_NO": 999, "REV_AT_EPOCH": 67147, "BSTAR": 0.0024657072, "MEAN_MOTION_DOT": 0.00106285, "MEAN_MOTION_DDOT": 0}, "tle": {"line1": "1 37085U 93036BFF 25347.37536808  .00106285  00000+0  24657-2 0  9992", "line2": "2 37085  73.9479 214.6598 0021315  52.8263 307.4887 15.41681601671472"}}, "geometry": {"type": "Point", "coordinates": [-170.7803424159517, 11.703614051758334]}}, {"type": "Feature", "properties": {"norad_id": 37089, "name": "COSMOS 2251 DEB", "group": "cosmos-2251-debris", "lat": -11.29624695163674, "lon": 116.30136403565666, "alt_km": 781.9150072374468, "timestamp": "2025-12-26T14:28:48.100596+00:00", "meta": {"OBJECT_NAME": "COSMOS 2251 DEB", "OBJECT_ID": "1993-036BFK", "EPOCH": "2025-12-21T15:34:23.731392", "MEAN_MOTION": 14.53121083, "ECCENTRICITY": 0.0134841, "INCLINATION": 74.0377, "RA_OF_ASC_NODE": 128.9285, "ARG_OF_PERICENTER": 227.2834, "MEAN_ANOMALY": 131.6914, "EPHEMERIS_TYPE": 0, "CLASSIFICATION_TYPE": "U", "NORAD_CAT_ID": 37089, "ELEMENT_SET_NO": 999, "REV_AT_EPOCH": 66239, "BSTAR": 0.0022471011, "MEAN_MOTION_DOT": 0.00010467, "MEAN_MOTION_DDOT": 0}, "tle": {"line1": "1 37089U 93036BFK 25355.64888578  .00010467  00000+0  22471-2 0  9997", "line2": "2 37089  74.0377 128.9285 0134841 227.2834 131.6914 14.53121083662390"}}, "geometry": {"type": "Point", "coordinates": [116.30136403565666, -11.29624695163674]}}]}